[{"OBJECT_NAME":"RISING 2","OBJECT_ID":"2014-029D","EPOCH":"2026-03-09T22:49:58.395648","MEAN_MOTION":14.97431818,"ECCENTRICITY":0.00015683,"INCLINATION":97.6622,"RA_OF_ASC_NODE":139.362,"ARG_OF_PERICENTER":264.4485,"MEAN_ANOMALY":95.6558,"EPHEMERIS_TYPE":0,"CLASSIFICATION_TYPE":"U","NORAD_CAT_ID":39769,"ELEMENT_SET_NO":999,"REV_AT_EPOCH":63869,"BSTAR":0.00068568934,"MEAN_MOTION_DOT":7.926e-5,"MEAN_MOTION_DDOT":0},{"OBJECT_NAME":"STARLINK-34644","OBJECT_ID":"2025-150Y","EPOCH":"2026-03-09T14:53:29.402016","MEAN_MOTION":14.98332521,"ECCENTRICITY":0.0003351,"INCLINATION":70.002,"RA_OF_ASC_NODE":134.6954,"ARG_OF_PERICENTER":269.5227,"MEAN_ANOMALY":90.5548,"EPHEMERIS_TYPE":0,"CLASSIFICATION_TYPE":"U","NORAD_CAT_ID":64812,"ELEMENT_SET_NO":999,"REV_AT_EPOCH":3650,"BSTAR":0.00015232,"MEAN_MOTION_DOT":1.725e-5,"MEAN_MOTION_DDOT":0}]
